[{"OBJECT_NAME":"STARLINK-36881","OBJECT_ID":"2026-038B","EPOCH":"2026-03-03T14:00:03.000384","MEAN_MOTION":16.05758905,"ECCENTRICITY":0.0001016,"INCLINATION":97.2785,"RA_OF_ASC_NODE":72.3525,"ARG_OF_PERICENTER":79.1203,"MEAN_ANOMALY":149.7469,"EPHEMERIS_TYPE":0,"CLASSIFICATION_TYPE":"U","NORAD_CAT_ID":67962,"ELEMENT_SET_NO":999,"REV_AT_EPOCH":221,"BSTAR":-0.0013583,"MEAN_MOTION_DOT":-0.009624,"MEAN_MOTION_DDOT":0.00032666},{"OBJECT_NAME":"STARLINK-36357","OBJECT_ID":"2026-038C","EPOCH":"2026-03-03T14:00:03.000384","MEAN_MOTION":16.05978027,"ECCENTRICITY":9.61e-5,"INCLINATION":97.2783,"RA_OF_ASC_NODE":72.3541,"ARG_OF_PERICENTER":96.5876,"MEAN_ANOMALY":135.4917,"EPHEMERIS_TYPE":0,"CLASSIFICATION_TYPE":"U","NORAD_CAT_ID":67963,"ELEMENT_SET_NO":999,"REV_AT_EPOCH":221,"BSTAR":-0.0013435,"MEAN_MOTION_DOT":-0.00964718,"MEAN_MOTION_DDOT":0.00032899},{"OBJECT_NAME":"STARLINK-36349","OBJECT_ID":"2026-038D","EPOCH":"2026-03-03T14:00:03.000384","MEAN_MOTION":16.05885238,"ECCENTRICITY":9.73e-5,"INCLINATION":97.2782,"RA_OF_ASC_NODE":72.3531,"ARG_OF_PERICENTER":92.0409,"MEAN_ANOMALY":138.4401,"EPHEMERIS_TYPE":0,"CLASSIFICATION_TYPE":"U","NORAD_CAT_ID":67964,"ELEMENT_SET_NO":999,"REV_AT_EPOCH":221,"BSTAR":-0.001347,"MEAN_MOTION_DOT":-0.00961767,"MEAN_MOTION_DDOT":0.00032676},{"OBJECT_NAME":"STARLINK-36806","OBJECT_ID":"2026-038E","EPOCH":"2026-03-03T14:00:03.000384","MEAN_MOTION":16.0609862,"ECCENTRICITY":0.0001055,"INCLINATION":97.278,"RA_OF_ASC_NODE":72.3548,"ARG_OF_PERICENTER":79.7714,"MEAN_ANOMALY":154.154,"EPHEMERIS_TYPE":0,"CLASSIFICATION_TYPE":"U","NORAD_CAT_ID":67965,"ELEMENT_SET_NO":999,"REV_AT_EPOCH":221,"BSTAR":-0.0013214,"MEAN_MOTION_DOT":-0.00955941,"MEAN_MOTION_DDOT":0.00032396},{"OBJECT_NAME":"STARLINK-36820","OBJECT_ID":"2026-038F","EPOCH":"2026-03-03T14:00:03.000384","MEAN_MOTION":16.06207771,"ECCENTRICITY":9.66e-5,"INCLINATION":97.278,"RA_OF_ASC_NODE":72.3555,"ARG_OF_PERICENTER":104.8013,"MEAN_ANOMALY":130.6831,"EPHEMERIS_TYPE":0,"CLASSIFICATION_TYPE":"U","NORAD_CAT_ID":67966,"ELEMENT_SET_NO":999,"REV_AT_EPOCH":221,"BSTAR":-0.0013171,"MEAN_MOTION_DOT":-0.00959198,"MEAN_MOTION_DDOT":0.00032644},{"OBJECT_NAME":"STARLINK-36819","OBJECT_ID":"2026-038G","EPOCH":"2026-03-03T14:00:03.000384","MEAN_MOTION":16.06325312,"ECCENTRICITY":0.0001081,"INCLINATION":97.278,"RA_OF_ASC_NODE":72.3561,"ARG_OF_PERICENTER":74.5892,"MEAN_ANOMALY":162.5619,"EPHEMERIS_TYPE":0,"CLASSIFICATION_TYPE":"U","NORAD_CAT_ID":67967,"ELEMENT_SET_NO":999,"REV_AT_EPOCH":221,"BSTAR":-0.0013141,"MEAN_MOTION_DOT":-0.00963891,"MEAN_MOTION_DDOT":0.00032989},{"OBJECT_NAME":"STARLINK-36812","OBJECT_ID":"2026-038H","EPOCH":"2026-03-03T14:00:03.000384","MEAN_MOTION":16.06421246,"ECCENTRICITY":0.0001063,"INCLINATION":97.2778,"RA_OF_ASC_NODE":72.3565,"ARG_OF_PERICENTER":74.3038,"MEAN_ANOMALY":164.3129,"EPHEMERIS_TYPE":0,"CLASSIFICATION_TYPE":"U","NORAD_CAT_ID":67968,"ELEMENT_SET_NO":999,"REV_AT_EPOCH":221,"BSTAR":-0.0013074,"MEAN_MOTION_DOT":-0.00964643,"MEAN_MOTION_DDOT":0.00033075},{"OBJECT_NAME":"STARLINK-36709","OBJECT_ID":"2026-038J","EPOCH":"2026-03-03T14:00:03.000384","MEAN_MOTION":16.06656794,"ECCENTRICITY":9.57e-5,"INCLINATION":97.2778,"RA_OF_ASC_NODE":72.3581,"ARG_OF_PERICENTER":100.096,"MEAN_ANOMALY":141.9268,"EPHEMERIS_TYPE":0,"CLASSIFICATION_TYPE":"U","NORAD_CAT_ID":67969,"ELEMENT_SET_NO":999,"REV_AT_EPOCH":221,"BSTAR":-0.0012917,"MEAN_MOTION_DOT":-0.00966972,"MEAN_MOTION_DDOT":0.0003332},{"OBJECT_NAME":"STARLINK-36319","OBJECT_ID":"2026-038K","EPOCH":"2026-03-03T14:00:03.000384","MEAN_MOTION":16.06542872,"ECCENTRICITY":9.74e-5,"INCLINATION":97.2778,"RA_OF_ASC_NODE":72.3572,"ARG_OF_PERICENTER":96.9983,"MEAN_ANOMALY":143.3071,"EPHEMERIS_TYPE":0,"CLASSIFICATION_TYPE":"U","NORAD_CAT_ID":67970,"ELEMENT_SET_NO":999,"REV_AT_EPOCH":218,"BSTAR":-0.0013089,"MEAN_MOTION_DOT":-0.00972946,"MEAN_MOTION_DDOT":0.00033654},{"OBJECT_NAME":"STARLINK-36710","OBJECT_ID":"2026-038L","EPOCH":"2026-03-03T14:00:03.000384","MEAN_MOTION":16.068048,"ECCENTRICITY":9.9e-5,"INCLINATION":97.2776,"RA_OF_ASC_NODE":72.359,"ARG_OF_PERICENTER":98.9762,"MEAN_ANOMALY":145.0984,"EPHEMERIS_TYPE":0,"CLASSIFICATION_TYPE":"U","NORAD_CAT_ID":67971,"ELEMENT_SET_NO":999,"REV_AT_EPOCH":221,"BSTAR":-0.0012836,"MEAN_MOTION_DOT":-0.00969749,"MEAN_MOTION_DDOT":0.00033559},{"OBJECT_NAME":"STARLINK-36894","OBJECT_ID":"2026-038M","EPOCH":"2026-03-03T14:00:03.000384","MEAN_MOTION":16.06925626,"ECCENTRICITY":9.9e-5,"INCLINATION":97.2774,"RA_OF_ASC_NODE":72.3598,"ARG_OF_PERICENTER":95.8471,"MEAN_ANOMALY":149.936,"EPHEMERIS_TYPE":0,"CLASSIFICATION_TYPE":"U","NORAD_CAT_ID":67972,"ELEMENT_SET_NO":999,"REV_AT_EPOCH":221,"BSTAR":-0.001277,"MEAN_MOTION_DOT":-0.00971949,"MEAN_MOTION_DDOT":0.00033751},{"OBJECT_NAME":"STARLINK-36900","OBJECT_ID":"2026-038N","EPOCH":"2026-03-03T14:00:03.000384","MEAN_MOTION":16.07165185,"ECCENTRICITY":9.19e-5,"INCLINATION":97.2773,"RA_OF_ASC_NODE":72.361,"ARG_OF_PERICENTER":98.988,"MEAN_ANOMALY":150.1874,"EPHEMERIS_TYPE":0,"CLASSIFICATION_TYPE":"U","NORAD_CAT_ID":67973,"ELEMENT_SET_NO":999,"REV_AT_EPOCH":221,"BSTAR":-0.0012573,"MEAN_MOTION_DOT":-0.00971291,"MEAN_MOTION_DDOT":0.00033809},{"OBJECT_NAME":"STARLINK-36901","OBJECT_ID":"2026-038P","EPOCH":"2026-03-03T14:00:03.000384","MEAN_MOTION":16.07038956,"ECCENTRICITY":9.94e-5,"INCLINATION":97.2773,"RA_OF_ASC_NODE":72.3601,"ARG_OF_PERICENTER":92.9722,"MEAN_ANOMALY":154.4307,"EPHEMERIS_TYPE":0,"CLASSIFICATION_TYPE":"U","NORAD_CAT_ID":67974,"ELEMENT_SET_NO":999,"REV_AT_EPOCH":221,"BSTAR":-0.0012681,"MEAN_MOTION_DOT":-0.00972007,"MEAN_MOTION_DDOT":0.00033802},{"OBJECT_NAME":"STARLINK-36883","OBJECT_ID":"2026-038Q","EPOCH":"2026-03-03T14:00:03.000384","MEAN_MOTION":16.07653452,"ECCENTRICITY":9.23e-5,"INCLINATION":97.2769,"RA_OF_ASC_NODE":72.3639,"ARG_OF_PERICENTER":91.1282,"MEAN_ANOMALY":164.892,"EPHEMERIS_TYPE":0,"CLASSIFICATION_TYPE":"U","NORAD_CAT_ID":67975,"ELEMENT_SET_NO":999,"REV_AT_EPOCH":221,"BSTAR":-0.0012177,"MEAN_MOTION_DOT":-0.00969813,"MEAN_MOTION_DDOT":0.00033921},{"OBJECT_NAME":"STARLINK-36880","OBJECT_ID":"2026-038R","EPOCH":"2026-03-03T14:00:03.000384","MEAN_MOTION":16.07288058,"ECCENTRICITY":9.56e-5,"INCLINATION":97.2771,"RA_OF_ASC_NODE":72.3617,"ARG_OF_PERICENTER":89.0978,"MEAN_ANOMALY":161.8022,"EPHEMERIS_TYPE":0,"CLASSIFICATION_TYPE":"U","NORAD_CAT_ID":67976,"ELEMENT_SET_NO":999,"REV_AT_EPOCH":221,"BSTAR":-0.0012474,"MEAN_MOTION_DOT":-0.00971071,"MEAN_MOTION_DDOT":0.00033847},{"OBJECT_NAME":"STARLINK-36904","OBJECT_ID":"2026-038S","EPOCH":"2026-03-03T14:00:03.000384","MEAN_MOTION":16.0752732,"ECCENTRICITY":9.07e-5,"INCLINATION":97.2769,"RA_OF_ASC_NODE":72.363,"ARG_OF_PERICENTER":95.209,"MEAN_ANOMALY":159.1008,"EPHEMERIS_TYPE":0,"CLASSIFICATION_TYPE":"U","NORAD_CAT_ID":67977,"ELEMENT_SET_NO":999,"REV_AT_EPOCH":221,"BSTAR":-0.0012218,"MEAN_MOTION_DOT":-0.00965529,"MEAN_MOTION_DDOT":0.00033591}]
